DMSP 5D-3 F16 (USA 172) 
1 28054U 03048A   26178.51373860  .00000020  00000+0  33872-4 0  9999
2 28054  98.9887 202.4103 0008108 114.3988  56.6781 14.14483765170940
METEOSAT-9 (MSG-2)      
1 28912U 05049B   26177.81720226  .00000126  00000+0  00000+0 0  9998
2 28912   9.3827  54.0739 0001988 356.9985 203.7944  1.00277622  7094
DMSP 5D-3 F17 (USA 191) 
1 29522U 06050A   26178.49354128  .00000056  00000+0  51251-4 0  9999
2 29522  98.7378 184.8527 0010750  32.4320 327.7513 14.14994219 13888
FENGYUN 3A              
1 32958U 08026A   26178.40840667  .00000064  00000+0  50719-4 0  9997
2 32958  98.6885 119.0505 0009868  97.3777 262.8520 14.19573235936851
GOES 14                 
1 35491U 09033A   26178.55114008 -.00000316  00000+0  00000+0 0  9994
2 35491   1.7164  82.9275 0002272  19.9063 147.0156  1.00107968  6694
DMSP 5D-3 F18 (USA 210) 
1 35951U 09057A   26178.46559192  .00000225  00000+0  13946-3 0  9993
2 35951  98.9041 159.2125 0010223 217.3035 142.7429 14.14902379861048
EWS-G2 (GOES 15)        
1 36411U 10008A   26178.46241646  .00000031  00000+0  00000+0 0  9993
2 36411   1.3054  82.7103 0005374  43.6300  19.2459  1.00268134 59746
COMS 1                  
1 36744U 10032A   26177.95757811  .00000041  00000+0  00000+0 0  9999
2 36744   4.8297  75.2434 0011917  12.9181 206.1281  0.99166709 51184
FENGYUN 3B              
1 37214U 10059A   26178.57787567  .00000580  00000+0  32294-3 0  9993
2 37214  98.9621 224.6366 0022490 154.6958   7.7399 14.14844995808895
SUOMI NPP               
1 37849U 11061A   26178.49052993  .00000044  00000+0  41886-4 0  9993
2 37849  98.7954 119.2962 0000946 335.7656  24.3475 14.19519345759906
METEOSAT-10 (MSG-3)     
1 38552U 12035B   26178.02213338  .00000001  00000+0  00000+0 0  9999
2 38552   4.6945  60.9773 0001756   9.1573 213.1506  1.00268678 50954
METOP-B                 
1 38771U 12049A   26178.46671222  .00000099  00000+0  64896-4 0  9990
2 38771  98.6500 229.7606 0001592 348.6842  11.4300 14.21441955714726
INSAT-3D                
1 39216U 13038B   26178.55669772 -.00000329  00000+0  00000+0 0  9990
2 39216   1.9524  82.4216 0001161   4.3168 158.8584  1.00271511 47185
FENGYUN 3C              
1 39260U 13052A   26178.50348214  .00000059  00000+0  51014-4 0  9990
2 39260  98.4983 151.9048 0014633 358.6741   1.4392 14.15757275660029
METEOR-M 2              
1 40069U 14037A   26178.49292802  .00000190  00000+0  10632-3 0  9998
2 40069  98.5111 153.8662 0006255  18.3041 341.8361 14.21464306620782
HIMAWARI-8              
1 40267U 14060A   26178.55114008 -.00000263  00000+0  00000+0 0  9998
2 40267   0.0114 323.6169 0001118 129.3362 161.7727  1.00274001 42860
FENGYUN 2G              
1 40367U 14090A   26177.68534693 -.00000296  00000+0  00000+0 0  9997
2 40367   5.6634  72.7057 0003579 150.4754  37.9966  1.00269056 42098
METEOSAT-11 (MSG-4)     
1 40732U 15034A   26178.30912948  .00000070  00000+0  00000+0 0  9994
2 40732   3.2259  71.0472 0002246 347.5065 337.5709  1.00266237  7316
ELEKTRO-L 2             
1 41105U 15074A   26176.94987031 -.00000113  00000+0  00000+0 0  9995
2 41105   6.7170  70.4166 0000727 286.6211 244.4527  1.00271163 38594
SENTINEL-3A             
1 41335U 16011A   26178.52566058  .00000096  00000+0  57593-4 0  9993
2 41335  98.6246 245.7607 0001438  96.7021 263.4323 14.26735302539536
INSAT-3DR               
1 41752U 16054A   26178.46440979 -.00000065  00000+0  00000+0 0  9992
2 41752   0.1317  86.1692 0010039 186.6696 243.8954  1.00272443 35927
HIMAWARI-9              
1 41836U 16064A   26178.55114008 -.00000263  00000+0  00000+0 0  9997
2 41836   0.0164  50.9272 0001187  63.7225 140.1779  1.00270819 35311
GOES 16                 
1 41866U 16071A   26178.50037272 -.00000080  00000+0  00000+0 0  9997
2 41866   0.3667  85.5265 0000588  10.2393 255.2834  1.00272086 35204
FENGYUN 4A              
1 41882U 16077A   26178.90200913 -.00000347  00000+0  00000+0 0  9995
2 41882   2.3489  80.1799 0007946 157.9961 126.1925  1.00278495 35032
CYGFM05                 
1 41884U 16078A   26178.43901707  .00021158  00000+0  28214-3 0  9998
2 41884  34.9549 192.6818 0008154 243.7506 116.2380 15.57089689530356
CYGFM04                 
1 41885U 16078B   26178.31350914  .00031770  00000+0  34979-3 0  9990
2 41885  34.9306 160.6881 0007250 279.1326  80.8579 15.62053434530588
CYGFM02                 
1 41886U 16078C   26178.35831736  .00037425  00000+0  36423-3 0  9990
2 41886  34.9386 154.6226 0008208 281.6128  78.3677 15.65141729530764
CYGFM01                 
1 41887U 16078D   26178.42321255  .00023909  00000+0  31046-3 0  9997
2 41887  34.9380 193.7600 0007939 238.2891 121.7060 15.57782075530309
CYGFM08                 
1 41888U 16078E   26178.36496918  .00028970  00000+0  33843-3 0  9990
2 41888  34.9411 173.4537 0009154 265.9465  94.0214 15.60518122530569
CYGFM07                 
1 41890U 16078G   26178.32348519  .00029027  00000+0  33802-3 0  9991
2 41890  34.9427 162.0632 0007615 278.9553  81.0310 15.60617634530584
CYGFM03                 
1 41891U 16078H   26178.35850771  .00028964  00000+0  33739-3 0  9991
2 41891  34.9383 163.7636 0007346 268.1651  91.8233 15.60611591530566
