OBJECT_NAME,OBJECT_ID,EPOCH,MEAN_MOTION,ECCENTRICITY,INCLINATION,RA_OF_ASC_NODE,ARG_OF_PERICENTER,MEAN_ANOMALY,EPHEMERIS_TYPE,CLASSIFICATION_TYPE,NORAD_CAT_ID,ELEMENT_SET_NO,REV_AT_EPOCH,BSTAR,MEAN_MOTION_DOT,MEAN_MOTION_DDOT
DMSP 5D-3 F16 (USA 172),2003-048A,2026-06-27T12:19:47.015040,14.14483765,.0008108,98.9887,202.4103,114.3988,56.6781,0,U,28054,999,17094,.33872E-4,.2E-6,0
METEOSAT-9 (MSG-2),2005-049B,2026-06-26T19:36:46.275264,1.00277622,.00019886,9.3827,54.0739,356.9985,203.7944,0,U,28912,999,709,0,.126E-5,0
DMSP 5D-3 F17 (USA 191),2006-050A,2026-06-27T11:50:41.966592,14.14994219,.001075,98.7378,184.8527,32.4320,327.7513,0,U,29522,999,1388,.51251E-4,.56E-6,0
FENGYUN 3A,2008-026A,2026-06-27T09:48:06.336288,14.19573235,.0009868,98.6885,119.0505,97.3777,262.8520,0,U,32958,999,93685,.50719E-4,.64E-6,0
GOES 14,2009-033A,2026-06-27T13:13:38.502912,1.00107968,.0002272,1.7164,82.9275,19.9063,147.0156,0,U,35491,999,669,0,-.316E-5,0
DMSP 5D-3 F18 (USA 210),2009-057A,2026-06-27T11:10:27.141888,14.14902379,.0010223,98.9041,159.2125,217.3035,142.7429,0,U,35951,999,86104,.13946E-3,.225E-5,0
EWS-G2 (GOES 15),2010-008A,2026-06-27T11:05:52.782144,1.00268134,.0005374,1.3054,82.7103,43.6300,19.2459,0,U,36411,999,5974,0,.31E-6,0
COMS 1,2010-032A,2026-06-26T22:58:54.748704,0.99166709,.00119179,4.8297,75.2434,12.9181,206.1281,0,U,36744,999,5118,0,.41E-6,0
FENGYUN 3B,2010-059A,2026-06-27T13:52:08.457888,14.14844995,.002249,98.9621,224.6366,154.6958,7.7399,0,U,37214,999,80889,.32294E-3,.58E-5,0
SUOMI NPP,2011-061A,2026-06-27T11:46:21.785952,14.19519345,.0000946,98.7954,119.2962,335.7656,24.3475,0,U,37849,999,75990,.41886E-4,.44E-6,0
METEOSAT-10 (MSG-3),2012-035B,2026-06-27T00:31:52.324032,1.00268678,.00017566,4.6945,60.9773,9.1573,213.1506,0,U,38552,999,5095,0,.1E-7,0
METOP-B,2012-049A,2026-06-27T11:12:03.935808,14.21441955,.0001592,98.6500,229.7606,348.6842,11.4300,0,U,38771,999,71472,.64896E-4,.99E-6,0
INSAT-3D,2013-038B,2026-06-27T13:21:38.683008,1.00271511,.0001161,1.9524,82.4216,4.3168,158.8584,0,U,39216,999,4718,0,-.329E-5,0
FENGYUN 3C,2013-052A,2026-06-27T12:05:00.856896,14.15757275,.0014633,98.4983,151.9048,358.6741,1.4392,0,U,39260,999,66002,.51014E-4,.59E-6,0
METEOR-M 2,2014-037A,2026-06-27T11:49:48.980928,14.21464306,.0006255,98.5111,153.8662,18.3041,341.8361,0,U,40069,999,62078,.10632E-3,.19E-5,0
HIMAWARI-8,2014-060A,2026-06-27T13:13:38.502912,1.00274001,.0001118,0.0114,323.6169,129.3362,161.7727,0,U,40267,999,4286,0,-.263E-5,0
FENGYUN 2G,2014-090A,2026-06-26T16:26:53.974752,1.00269056,.00035792,5.6634,72.7057,150.4754,37.9966,0,U,40367,999,4209,0,-.296E-5,0
METEOSAT-11 (MSG-4),2015-034A,2026-06-27T07:25:08.787072,1.00266237,.0002246,3.2259,71.0472,347.5065,337.5709,0,U,40732,999,731,0,.7E-6,0
ELEKTRO-L 2,2015-074A,2026-06-25T22:47:48.794784,1.00271163,.00007276,6.7170,70.4166,286.6211,244.4527,0,U,41105,999,3859,0,-.113E-5,0
SENTINEL-3A,2016-011A,2026-06-27T12:36:57.074112,14.26735302,.0001438,98.6246,245.7607,96.7021,263.4323,0,U,41335,999,53953,.57593E-4,.96E-6,0
INSAT-3DR,2016-054A,2026-06-27T11:08:45.005856,1.00272443,.0010039,0.1317,86.1692,186.6696,243.8954,0,U,41752,999,3592,0,-.65E-6,0
HIMAWARI-9,2016-064A,2026-06-27T13:13:38.502912,1.00270819,.0001187,0.0164,50.9272,63.7225,140.1779,0,U,41836,999,3531,0,-.263E-5,0
GOES 16,2016-071A,2026-06-27T12:00:32.203008,1.00272086,.0000588,0.3667,85.5265,10.2393,255.2834,0,U,41866,999,3520,0,-.8E-6,0
FENGYUN 4A,2016-077A,2026-06-27T21:38:53.588832,1.00278495,.0007946,2.3489,80.1799,157.9961,126.1925,0,U,41882,999,3503,0,-.347E-5,0
CYGFM05,2016-078A,2026-06-27T10:32:11.074848,15.57089689,.0008154,34.9549,192.6818,243.7506,116.2380,0,U,41884,999,53035,.28214E-3,.21158E-3,0
CYGFM04,2016-078B,2026-06-27T07:31:27.189696,15.62053434,.000725,34.9306,160.6881,279.1326,80.8579,0,U,41885,999,53058,.34979E-3,.3177E-3,0
CYGFM02,2016-078C,2026-06-27T08:35:58.619904,15.65141729,.0008208,34.9386,154.6226,281.6128,78.3677,0,U,41886,999,53076,.36423E-3,.37425E-3,0
CYGFM01,2016-078D,2026-06-27T10:09:25.564320,15.57782075,.0007939,34.9380,193.7600,238.2891,121.7060,0,U,41887,999,53030,.31046E-3,.23909E-3,0
CYGFM08,2016-078E,2026-06-27T08:45:33.337152,15.60518122,.0009154,34.9411,173.4537,265.9465,94.0214,0,U,41888,999,53056,.33843E-3,.2897E-3,0
CYGFM07,2016-078G,2026-06-27T07:45:49.120416,15.60617634,.0007615,34.9427,162.0632,278.9553,81.0310,0,U,41890,999,53058,.33802E-3,.29027E-3,0
CYGFM03,2016-078H,2026-06-27T08:36:15.066144,15.60611591,.0007346,34.9383,163.7636,268.1651,91.8233,0,U,41891,999,53056,.33739E-3,.28964E-3,0
